ONEWEB-0461             
1 51649U 22012AD  24137.81690789  .00000079  00000+0  17082-3 0  9993
2 51649  87.9167 157.4008 0002000  88.1711 271.9649 13.17649780114918
ONEWEB-0463             
1 51650U 22012AE  24137.79951739  .00000052  00000+0  10094-3 0  9994
2 51650  87.9171 157.4497 0001935  90.5565 269.5788 13.17649117113401
ONEWEB-0464             
1 51651U 22012AF  24138.13045427  .00000696  00000+0  19573-2 0  9996
2 51651  87.8968 187.5550 0002398 104.0206 256.1188 13.10372272110957
ONEWEB-0468             
1 51652U 22012AG  24137.83165933  .00000399  00000+0  11075-2 0  9997
2 51652  87.8964 187.6070 0002155  99.5293 260.6078 13.10371070109598
ONEWEB-0473             
1 51653U 22012AH  24137.89308275 -.00000183  00000+0 -56017-3 0  9991
2 51653  87.8963 187.5980 0002192  98.7312 261.4063 13.10379611109605
ONEWEB-0474             
1 51654U 22012AJ  24137.88477475  .00000375  00000+0  10388-2 0  9991
2 51654  87.8961 187.5994 0002127 104.3741 255.7623 13.10377086109597
ONEWEB-0475             
1 51655U 22012AK  24137.81058636  .00000108  00000+0  24449-3 0  9997
2 51655  87.9170 157.4266 0001978 105.1740 254.9610 13.17650679113423
ONEWEB-0490             
1 54113U 22138A   24137.63071702  .00000090  00000+0  19315-3 0  9993
2 54113  87.9126  96.5268 0002156  88.3090 271.8290 13.19725249 76383
